[{"OBJECT_NAME":"STARLINK-5119","OBJECT_ID":"2022-125Y","EPOCH":"2026-03-09T15:56:53.332224","MEAN_MOTION":15.08839018,"ECCENTRICITY":0.00013163,"INCLINATION":53.2175,"RA_OF_ASC_NODE":203.9137,"ARG_OF_PERICENTER":86.8973,"MEAN_ANOMALY":273.217,"EPHEMERIS_TYPE":0,"CLASSIFICATION_TYPE":"U","NORAD_CAT_ID":53986,"ELEMENT_SET_NO":999,"REV_AT_EPOCH":18959,"BSTAR":2.1470498e-5,"MEAN_MOTION_DOT":5.4e-7,"MEAN_MOTION_DDOT":0},{"OBJECT_NAME":"LEMUR-2-STELLA","OBJECT_ID":"2024-149BT","EPOCH":"2026-03-09T17:26:15.951264","MEAN_MOTION":15.09464064,"ECCENTRICITY":0.0001299,"INCLINATION":97.6764,"RA_OF_ASC_NODE":150.9122,"ARG_OF_PERICENTER":95.1117,"MEAN_ANOMALY":265.026,"EPHEMERIS_TYPE":0,"CLASSIFICATION_TYPE":"U","NORAD_CAT_ID":60533,"ELEMENT_SET_NO":999,"REV_AT_EPOCH":8548,"BSTAR":0.00085776432,"MEAN_MOTION_DOT":0.00013685,"MEAN_MOTION_DDOT":0}]
