STARLINK-5119           
1 53986U 22125Y   26068.66450616  .00000054  00000+0  21470-4 0  9995
2 53986  53.2175 203.9137 0001316  86.8973 273.2170 15.08839018189590
LEMUR-2-STELLA          
1 60533U 24149BT  26068.72657350  .00013685  00000+0  85776-3 0  9992
2 60533  97.6764 150.9122 0001299  95.1117 265.0260 15.09464064 85488
